[
    {
        "Altitude(m)": 607886.7293811777,
        "Argument of Periapsis(deg)": 0.0,
        "Eccentricity": 0.0,
        "Inclination(deg)": 60.0,
        "Latitude(deg)": 40.99854640017386,
        "Longitude(deg)": 144.97301442152622,
        "Mean Anomaly(deg)": 49.09089999999999,
        "RAAN(deg)": 215.0,
        "Satellite Name": "Test1 949",
        "Satellite Number": 949,
        "Semi-Major Axis(m)": 6980739.136638005,
        "Time(s)": 0
    },
    {
        "Altitude(m)": 607987.6433725067,
        "Argument of Periapsis(deg)": 0.00010418945913296404,
        "Eccentricity": 0.0,
        "Inclination(deg)": 60.0,
        "Latitude(deg)": 41.46363610670932,
        "Longitude(deg)": 145.47724366102864,
        "Mean Anomaly(deg)": 49.711006145461845,
        "RAAN(deg)": 214.99957995086024,
        "Satellite Name": "Test1 949",
        "Satellite Number": 949,
        "Semi-Major Axis(m)": 6980739.136638005,
        "Time(s)": 10
    }
]